{
    "links": {
        "self": "http://www.neowsapp.com/rest/v1/neo/3764704?api_key=iIulBulltgU6a56xZRHN4H3l9WmuAYTsLGpBGhQ2"
    },
    "id": "3764704",
    "neo_reference_id": "3764704",
    "name": "(2016 WV2)",
    "designation": "2016 WV2",
    "nasa_jpl_url": "http://ssd.jpl.nasa.gov/sbdb.cgi?sstr=3764704",
    "absolute_magnitude_h": 26.3,
    "estimated_diameter": {
        "kilometers": {
            "estimated_diameter_min": 0.0146067964,
            "estimated_diameter_max": 0.0326617897
        },
        "meters": {
            "estimated_diameter_min": 14.6067964271,
            "estimated_diameter_max": 32.6617897446
        },
        "miles": {
            "estimated_diameter_min": 0.0090762397,
            "estimated_diameter_max": 0.020295089
        },
        "feet": {
            "estimated_diameter_min": 47.92256199,
            "estimated_diameter_max": 107.1581062656
        }
    },
    "is_potentially_hazardous_asteroid": false,
    "close_approach_data": [
        {
            "close_approach_date": "2016-11-25",
            "close_approach_date_full": "2016-Nov-25 10:21",
            "epoch_date_close_approach": 1480069260000,
            "relative_velocity": {
                "kilometers_per_second": "7.7076190968",
                "kilometers_per_hour": "27747.4287483591",
                "miles_per_hour": "17241.1731575568"
            },
            "miss_distance": {
                "astronomical": "0.0171934792",
                "lunar": "6.6882634088",
                "kilometers": "2572107.866209304",
                "miles": "1598233.7169802352"
            },
            "orbiting_body": "Earth"
        }
    ],
    "orbital_data": {
        "orbit_id": "4",
        "orbit_determination_date": "2017-04-06 08:22:01",
        "first_observation_date": "2016-11-23",
        "last_observation_date": "2016-11-30",
        "data_arc_in_days": 7,
        "observations_used": 42,
        "orbit_uncertainty": "7",
        "minimum_orbit_intersection": ".00536639",
        "jupiter_tisserand_invariant": "3.353",
        "epoch_osculation": "2459000.5",
        "eccentricity": ".5735116435645797",
        "semi_major_axis": "2.298603178885884",
        "inclination": ".5106545468092378",
        "ascending_node_longitude": "304.204216436471",
        "orbital_period": "1272.900424564078",
        "perihelion_distance": ".9803274918602729",
        "perihelion_argument": "134.4447820684169",
        "aphelion_distance": "3.616878865911495",
        "perihelion_time": "2459006.088655414291",
        "mean_anomaly": "358.4194239311109",
        "mean_motion": ".2828186659795379",
        "equinox": "J2000",
        "orbit_class": {
            "orbit_class_type": "APO",
            "orbit_class_description": "Near-Earth asteroid orbits which cross the Earth’s orbit similar to that of 1862 Apollo",
            "orbit_class_range": "a (semi-major axis) > 1.0 AU; q (perihelion) < 1.017 AU"
        }
    },
    "is_sentry_object": false
}